LEMUR-2-JK0903EM1407    
1 58336U 23174CJ  26087.75185500  .00028621  00000+0  55370-3 0  9997
2 58336  97.3899 176.2318 0005325  56.2344 303.9413 15.47698798133272
LEMUR-2-MJR092620       
1 58340U 23174CN  26087.77614799  .00014285  00000+0  32958-3 0  9999
2 58340  97.3966 176.4873 0007680  58.3573 301.8423 15.42636749133241
LEMUR-2-NIMBUS2000      
1 58899U 24022A   26087.83064381  .00019476  00000+0  53097-3 0  9998
2 58899  97.4212 296.9308 0010276  53.5111 306.7079 15.37451885119915
LEMUR-2-VALHALLA        
1 58900U 24022B   26087.55242821  .00019114  00000+0  52539-3 0  9996
2 58900  97.4213 296.6758 0010736  50.0444 310.1742 15.37197207119873
LEMUR-2-OBA-NI-JESU     
1 58902U 24022D   26087.88240409  .00139603  00000+0  11581-2 0  9991
2 58902  97.4021 306.9819 0003097  10.6481 349.4846 15.69766533120602
LEMUR-2-CAEL            
1 58903U 24022E   26087.56100278  .00019819  00000+0  52492-3 0  9999
2 58903  97.4196 297.4877 0008662  35.7960 324.3863 15.38358880119930
LEMUR-2-JOHNNYTRUONG    
1 59146U 24043BA  26087.64990249  .00044417  00000+0  67124-3 0  9996
2 59146  97.5285 234.7704 0005281 122.2229 237.9536 15.54580093115503
LEMUR-2-TOMATOKECHUP    
1 60471U 24149D   26087.80450749  .00013743  00000+0  41602-3 0  9991
2 60471  97.3820 169.7464 0002931 137.2421 222.9050 15.34291442 89834
LEMUR-2-STELLA          
1 60533U 24149BT  26087.74869927  .00014987  00000+0  92589-3 0  9996
2 60533  97.6752 169.9626 0001154 104.1299 256.0058 15.09970059 88356
LEMUR-2-MARHISYAM       
1 60536U 24149BW  26087.76826036  .00014857  00000+0  92964-3 0  9998
2 60536  97.6899 170.3440 0002684  66.3792 293.7718 15.09503645 88340
LEMUR-2-AHMED-ASRAR     
1 60576U 24149DN  26087.87586839  .00012526  00000+0  75615-3 0  9993
2 60576  97.7011 172.2480 0000748 242.6494 117.4659 15.10857895 88430
LEMUR-2-LLOYD           
1 60577U 24149DP  26087.77693833  .00013843  00000+0  91199-3 0  9994
2 60577  97.6765 168.9582 0004762  75.0330 285.1425 15.07617785 88272
LEMUR-2-SQUIRRELCOMM    
1 60578U 24149DQ  26087.76281852  .00008258  00000+0  56800-3 0  9992
2 60578  97.6738 168.9830 0004631 336.4088  23.6926 15.06163005 88291
LEMUR-2-SIERRINI        
1 60579U 24149DR  26087.77471506  .00015382  00000+0  97067-3 0  9997
2 60579  97.6856 170.1191 0006567  97.6876 262.5098 15.09170724 88326
LEMUR-2-WILSON          
1 62694U 25009CP  26087.77681295  .00003235  00000+0  30259-3 0  9995
2 62694  97.7054 167.6677 0001902 332.7436  27.3685 14.94791149 65349
LEMUR-2-STAR-FOX        
1 62696U 25009CR  26087.81097110  .00011274  00000+0  88097-3 0  9994
2 62696  97.7002 170.0921 0003529 119.7868 240.3707 15.01257349 65499
